GPS BIIR-5  (PRN 22)    
1 26407U 00040A   26180.50502477  .00000074  00000+0  00000+0 0  9999
2 26407  54.8501 214.6729 0120848 302.5768 235.1095  2.00557856190192
GPS BIIR-8  (PRN 16)    
1 27663U 03005A   26179.61106866  .00000078  00000+0  00000+0 0  9994
2 27663  54.8808 214.5148 0148047  53.1107 335.2091  2.00560056171540
GPS BIIR-11 (PRN 19)    
1 28190U 04009A   26179.36518501 -.00000034  00000+0  00000+0 0  9993
2 28190  54.8202 275.2354 0116546 173.5786 190.0980  2.00554511163179
GPS BIIR-13 (PRN 02)    
1 28474U 04045A   26179.92780098 -.00000096  00000+0  00000+0 0  9990
2 28474  55.1288 324.4235 0169938 316.6864 158.1858  2.00556587158669
GPS BIIRM-1 (PRN 17)    
1 28874U 05038A   26179.81758669 -.00000025  00000+0  00000+0 0  9996
2 28874  54.8685 272.7079 0128036 296.2526  63.1609  2.00565022152075
GPS BIIRM-2 (PRN 31)    
1 29486U 06042A   26180.46046719  .00000029  00000+0  00000+0 0  9994
2 29486  54.7121 150.8516 0106853  54.7447 307.5404  2.00569238144648
GPS BIIRM-3 (PRN 12)    
1 29601U 06052A   26179.38742338  .00000080  00000+0  00000+0 0  9990
2 29601  54.9347 213.5620 0084905  90.9098 270.1445  2.00558869143635
GPS BIIRM-4 (PRN 15)    
1 32260U 07047A   26178.19682157 -.00000070  00000+0  00000+0 0  9990
2 32260  54.1023  79.6530 0167143  87.5980 274.3314  2.00554886137013
GPS BIIRM-5 (PRN 29)    
1 32384U 07062A   26180.47875100 -.00000023  00000+0  00000+0 0  9998
2 32384  55.0217 273.6583 0035894 166.4672 168.7106  2.00560923135754
GPS BIIRM-6 (PRN 07)    
1 32711U 08012A   26179.60288630  .00000026  00000+0  00000+0 0  9999
2 32711  54.4988 149.4688 0211450 247.9745 109.7340  2.00572790133985
GPS BIIRM-8 (PRN 05)    
1 35752U 09043A   26179.60232265 -.00000074  00000+0  00000+0 0  9999
2 35752  56.2175  27.0036 0053816  83.6950 284.8204  2.00553861123590
GPS BIIF-1  (PRN 25)    
1 36585U 10022A   26180.35889388  .00000076  00000+0  00000+0 0  9992
2 36585  54.2696 208.0717 0126463  66.1279 247.7907  2.00563096117836
GPS BIIF-3  (PRN 24)    
1 38833U 12053A   26180.28176718  .00000015  00000+0  00000+0 0  9997
2 38833  53.5879 143.1039 0181003  65.9496 295.8899  2.00567753 99684
GPS BIIF-4  (PRN 27)    
1 39166U 13023A   26178.65333561 -.00000025  00000+0  00000+0 0  9996
2 39166  54.4958 268.5471 0141421  51.0520 310.2484  2.00563560 96094
GPS BIIF-5  (PRN 30)    
1 39533U 14008A   26179.65223228  .00000024  00000+0  00000+0 0  9995
2 39533  53.6562 148.8522 0084212 231.4139 127.7949  2.00560606 89913
